[{"id":"37948","name":"BEIDOU-2 IGSO-5","tle1":"1 37948U 11073A   26175.65702808 -.00000196  00000+0  00000+0 0  9995","tle2":"2 37948  47.6633 271.4526 0114223 222.0346 107.5350  1.00272136 53204"},{"id":"37951","name":"LUCH-5A","tle1":"1 37951U 11074B   26175.55511365 -.00000049  00000+0  00000+0 0  9992","tle2":"2 37951   8.7729  73.7008 0002656  31.6607 174.1088  1.00271915 53123"},{"id":"38091","name":"BEIDOU-2 G5","tle1":"1 38091U 12008A   26176.18018738  .00000063  00000+0  00000+0 0  9997","tle2":"2 38091   3.5944  69.6576 0008771 275.7368  51.5000  1.00275083 52440"},{"id":"38250","name":"BEIDOU-2 M3","tle1":"1 38250U 12018A   26174.63219166 -.00000109  00000+0  00000+0 0  9993","tle2":"2 38250  55.7518 304.6576 0020193 273.5233  86.2361  1.86229600 96063"},{"id":"38251","name":"BEIDOU-2 M4","tle1":"1 38251U 12018B   26174.56448814 -.00000108  00000+0  00000+0 0  9999","tle2":"2 38251  55.6516 303.8740 0011628 274.1207  85.7373  1.86229575 96064"},{"id":"38652","name":"SES-5","tle1":"1 38652U 12036A   26175.81307972  .00000043  00000+0  00000+0 0  9999","tle2":"2 38652   0.0448 318.0698 0002053 132.6249 119.9515  1.00272324 44532"},{"id":"38775","name":"BEIDOU-2 M6","tle1":"1 38775U 12050B   26175.88506278 -.00000094  00000+0  00000+0 0  9995","tle2":"2 38775  56.5509  62.6397 0013559 358.0228   2.0098  1.86231110 93459"},{"id":"38779","name":"GSAT-10","tle1":"1 38779U 12051B   26175.97105792 -.00000156  00000+0  00000+0 0  9995","tle2":"2 38779   0.0621 259.8021 0008103 190.3061 255.6116  1.00272205 50172"},{"id":"38833","name":"NAVSTAR 67 (USA 239)","tle1":"1 38833U 12053A   26174.79756486  .00000054  00000+0  00000+0 0  9995","tle2":"2 38833  53.5871 143.3285 0180676  65.8518 296.0006  2.00567625 99579"},{"id":"38857","name":"GSAT0103 (GALILEO-FM3)","tle1":"1 38857U 12055A   26175.51466267 -.00000036  00000+0  00000+0 0  9990","tle2":"2 38857  55.8110 101.3445 0004768 306.0836  53.8462  1.70473530 85137"},{"id":"38953","name":"BEIDOU-2 G6","tle1":"1 38953U 12059A   26175.89491303 -.00000170  00000+0  00000+0 0  9990","tle2":"2 38953   4.4417  73.4456 0009773 328.1958 277.6060  1.00271564 49985"},{"id":"38977","name":"LUCH-5B","tle1":"1 38977U 12061A   26175.95142001 -.00000137  00000+0  00000+0 0  9997","tle2":"2 38977  10.5008  49.8064 0002437 137.6897  51.8517  1.00272591 49689"},{"id":"39155","name":"COSMOS 2485 [GLONASS-M]","tle1":"1 39155U 13019A   26174.94888940 -.00000068  00000+0  00000+0 0  9990","tle2":"2 39155  65.4235  73.3773 0023016 233.5300 126.2899  2.13103180102423"},{"id":"39166","name":"NAVSTAR 68 (USA 242)","tle1":"1 39166U 13023A   26175.66184649 -.00000056  00000+0  00000+0 0  9999","tle2":"2 39166  54.4981 268.6689 0141452  51.0437 310.2431  2.00563536 96032"},{"id":"39199","name":"IRNSS-1A","tle1":"1 39199U 13034A   26175.75184924  .00000048  00000+0  00000+0 0  9993","tle2":"2 39199  35.7376  63.7613 0018365 178.4140 356.3236  1.00277314 47440"},{"id":"39533","name":"NAVSTAR 69 (USA 248)","tle1":"1 39533U 14008A   26175.66358267  .00000057  00000+0  00000+0 0  9990","tle2":"2 39533  53.6557 149.0147 0084221 231.3777 127.8455  2.00560324 89831"},{"id":"39617","name":"ASTRA 5B","tle1":"1 39617U 14011B   26176.22405644  .00000147  00000+0  00000+0 0  9992","tle2":"2 39617   0.0551 321.7968 0002188 114.1901 301.5057  1.00271711 44741"},{"id":"39620","name":"COSMOS 2492 [GLONASS-M]","tle1":"1 39620U 14012A   26174.90776451 -.00000082  00000+0  00000+0 0  9996","tle2":"2 39620  65.2933 313.7069 0010214 323.0851  36.8355  2.13103141 95380"},{"id":"39635","name":"IRNSS-1B","tle1":"1 39635U 14017A   26173.75560031  .00000117  00000+0  00000+0 0  9992","tle2":"2 39635  28.9065 240.3095 0023496 164.9008 193.0039  1.00268591 44840"},{"id":"39727","name":"LUCH-5V","tle1":"1 39727U 14023A   26176.16919925 -.00000264  00000+0  00000+0 0  9993","tle2":"2 39727   5.1530  69.6698 0002380  47.5298 311.7784  1.00272322 44431"},{"id":"39741","name":"NAVSTAR 70 (USA 251)","tle1":"1 39741U 14026A   26174.94199794 -.00000102  00000+0  00000+0 0  9991","tle2":"2 39741  56.4948 331.2545 0038124 326.4013  33.3520  2.00560583 88676"},{"id":"40001","name":"COSMOS 2500 [GLONASS-M]","tle1":"1 40001U 14032A   26174.60818354 -.00000081  00000+0  00000+0 0  9998","tle2":"2 40001  65.2282 313.4639 0007619 185.3696 174.6138  2.13105784 93599"},{"id":"40105","name":"NAVSTAR 71 (USA 256)","tle1":"1 40105U 14045A   26176.03097331 -.00000068  00000+0  00000+0 0  9995","tle2":"2 40105  55.3581  88.1524 0033641 118.2729 242.0683  2.00559023 86234"},{"id":"40128","name":"GSAT0201 (GALILEO 5)","tle1":"1 40128U 14050A   26175.42373058 -.00000085  00000+0  00000+0 0  9990","tle2":"2 40128  48.8673 273.1394 1675706 179.6719 180.5031  1.85520133 78454"},{"id":"40129","name":"GSAT0202 (GALILEO 6)","tle1":"1 40129U 14050B   26175.14026136 -.00000085  00000+0  00000+0 0  9992","tle2":"2 40129  48.8844 272.2366 1676801 180.3913 179.5080  1.85520680 80616"},{"id":"40269","name":"IRNSS-1C","tle1":"1 40269U 14061A   26175.82845051 -.00000156  00000+0  00000+0 0  9998","tle2":"2 40269   6.5365  88.7862 0022606   3.3861 201.9386  1.00268119 42760"},{"id":"40294","name":"NAVSTAR 72 (USA 258)","tle1":"1 40294U 14068A   26175.90027962 -.00000090  00000+0  00000+0 0  9992","tle2":"2 40294  56.9929  30.6575 0067208  70.8868 289.8931  2.00576832 85362"},{"id":"40315","name":"COSMOS 2501 [GLONASS-K]","tle1":"1 40315U 14075A   26175.33959343  .00000105  00000+0  00000+0 0  9994","tle2":"2 40315  63.6173 190.1245 0022649 212.5723 147.3362  2.13101398 90001"},{"id":"40534","name":"NAVSTAR 73 (USA 260)","tle1":"1 40534U 15013A   26175.54153049  .00000081  00000+0  00000+0 0  9995","tle2":"2 40534  53.1675 203.8732 0109709  40.1788 320.6928  2.00551009 81971"},{"id":"40544","name":"GSAT0203 (GALILEO 7)","tle1":"1 40544U 15017A   26175.25180748 -.00000098  00000+0  00000+0 0  9993","tle2":"2 40544  56.7845 341.4029 0002115 270.3304  89.6420  1.70476337 69322"},{"id":"40545","name":"GSAT0204 (GALILEO 8)","tle1":"1 40545U 15017B   26174.92103312 -.00000099  00000+0  00000+0 0  9990","tle2":"2 40545  56.7909 341.4306 0002093 241.0442 118.9316  1.70475870 32360"}]