OBJECT_NAME,OBJECT_ID,EPOCH,MEAN_MOTION,ECCENTRICITY,INCLINATION,RA_OF_ASC_NODE,ARG_OF_PERICENTER,MEAN_ANOMALY,EPHEMERIS_TYPE,CLASSIFICATION_TYPE,NORAD_CAT_ID,ELEMENT_SET_NO,REV_AT_EPOCH,BSTAR,MEAN_MOTION_DOT,MEAN_MOTION_DDOT
BEIDOU-2 IGSO-5 (C10),2011-073A,2026-06-24T15:46:07.226112,1.00272136,.01142233,47.6633,271.4526,222.0346,107.5350,0,U,37948,999,5320,0,-.196E-5,0
LUCH 5A (SDCM/PRN 140),2011-074B,2026-06-24T13:19:21.819360,1.00271915,.00026562,8.7729,73.7008,31.6607,174.1088,0,U,37951,999,5312,0,-.49E-6,0
BEIDOU-2 G5 (C05),2012-008A,2026-06-25T04:19:28.189632,1.00275083,.00087715,3.5944,69.6576,275.7368,51.5000,0,U,38091,999,5244,0,.63E-6,0
BEIDOU-2 M3 (C11),2012-018A,2026-06-23T15:10:21.359424,1.86229600,.00201939,55.7518,304.6576,273.5233,86.2361,0,U,38250,999,9606,0,-.109E-5,0
BEIDOU-2 M4 (C12),2012-018B,2026-06-23T13:32:51.775296,1.86229575,.00116283,55.6516,303.8740,274.1207,85.7373,0,U,38251,999,9606,0,-.108E-5,0
SES-5 (EGNOS/PRN 136),2012-036A,2026-06-24T19:30:50.087808,1.00272324,.00020539,0.0448,318.0698,132.6249,119.9515,0,U,38652,999,4453,0,.43E-6,0
BEIDOU-2 M6 (C14),2012-050B,2026-06-24T21:14:29.424192,1.86231110,.00135597,56.5509,62.6397,358.0228,2.0098,0,U,38775,999,9345,0,-.94E-6,0
GSAT-10 (GAGAN/PRN 128),2012-051B,2026-06-24T23:18:19.404288,1.00272205,.0008103,0.0621,259.8021,190.3061,255.6116,0,U,38779,999,5017,0,-.156E-5,0
GPS BIIF-3  (PRN 24),2012-053A,2026-06-23T19:08:29.603904,2.00567625,.01806762,53.5871,143.3285,65.8518,296.0006,0,U,38833,999,9957,0,.54E-6,0
GSAT0103 (GALILEO-FM3),2012-055A,2026-06-24T12:21:06.854688,1.70473530,.00047688,55.8110,101.3445,306.0836,53.8462,0,U,38857,999,8513,0,-.36E-6,0
BEIDOU-2 G6 (C02),2012-059A,2026-06-24T21:28:40.485792,1.00271564,.0009773,4.4417,73.4456,328.1958,277.6060,0,U,38953,999,4998,0,-.17E-5,0
LUCH 5B (SDCM/PRN 125),2012-061A,2026-06-24T22:50:02.688864,1.00272591,.00024379,10.5008,49.8064,137.6897,51.8517,0,U,38977,999,4968,0,-.137E-5,0
COSMOS 2485 (747),2013-019A,2026-06-23T22:46:24.044160,2.13103180,.00230164,65.4235,73.3773,233.5300,126.2899,0,U,39155,999,10242,0,-.68E-6,0
GPS BIIF-4  (PRN 27),2013-023A,2026-06-24T15:53:03.536736,2.00563536,.01414527,54.4981,268.6689,51.0437,310.2431,0,U,39166,999,9603,0,-.56E-6,0
IRNSS-1A,2013-034A,2026-06-24T18:02:39.774336,1.00277314,.00183659,35.7376,63.7613,178.4140,356.3236,0,U,39199,999,4744,0,.48E-6,0
GPS BIIF-5  (PRN 30),2014-008A,2026-06-24T15:55:33.542688,2.00560324,.00842217,53.6557,149.0147,231.3777,127.8455,0,U,39533,999,8983,0,.57E-6,0
ASTRA 5B (EGNOS/PRN 123),2014-011B,2026-06-25T05:22:38.476416,1.00271711,.00021883,0.0551,321.7968,114.1901,301.5057,0,U,39617,999,4474,0,.147E-5,0
COSMOS 2492 (754),2014-012A,2026-06-23T21:47:10.853664,2.13103141,.00102141,65.2933,313.7069,323.0851,36.8355,0,U,39620,999,9538,0,-.82E-6,0
IRNSS-1B,2014-017A,2026-06-22T18:08:03.866784,1.00268591,.00234964,28.9065,240.3095,164.9008,193.0039,0,U,39635,999,4484,0,.117E-5,0
LUCH 5V (SDCM/PRN 141),2014-023A,2026-06-25T04:03:38.815200,1.00272322,.00023808,5.1530,69.6698,47.5298,311.7784,0,U,39727,999,4443,0,-.264E-5,0
GPS BIIF-6  (PRN 06),2014-026A,2026-06-23T22:36:28.622016,2.00560583,.00381244,56.4948,331.2545,326.4013,33.3520,0,U,39741,999,8867,0,-.102E-5,0
COSMOS 2500 (755),2014-032A,2026-06-23T14:35:47.057856,2.13105784,.00076192,65.2282,313.4639,185.3696,174.6138,0,U,40001,999,9359,0,-.81E-6,0
GPS BIIF-7  (PRN 09),2014-045A,2026-06-25T00:44:36.093984,2.00559023,.00336415,55.3581,88.1524,118.2729,242.0683,0,U,40105,999,8623,0,-.68E-6,0
GSAT0201 (GALILEO 5),2014-050A,2026-06-24T10:10:10.322112,1.85520133,.16757066,48.8673,273.1394,179.6719,180.5031,0,U,40128,999,7845,0,-.85E-6,0
GSAT0202 (GALILEO 6),2014-050B,2026-06-24T03:21:58.581504,1.85520680,.16768012,48.8844,272.2366,180.3913,179.5080,0,U,40129,999,8061,0,-.85E-6,0
IRNSS-1C,2014-061A,2026-06-24T19:52:58.124064,1.00268119,.00226063,6.5365,88.7862,3.3861,201.9386,0,U,40269,999,4276,0,-.156E-5,0
GPS BIIF-8  (PRN 03),2014-068A,2026-06-24T21:36:24.159168,2.00576832,.00672085,56.9929,30.6575,70.8868,289.8931,0,U,40294,999,8536,0,-.9E-6,0
COSMOS 2501 (702K),2014-075A,2026-06-24T08:09:00.872352,2.13101398,.00226491,63.6173,190.1245,212.5723,147.3362,0,U,40315,999,9000,0,.105E-5,0
GPS BIIF-9  (PRN 26),2015-013A,2026-06-24T12:59:48.234336,2.00551009,.01097093,53.1675,203.8732,40.1788,320.6928,0,U,40534,999,8197,0,.81E-6,0
GSAT0203 (GALILEO 7),2015-017A,2026-06-24T06:02:36.166272,1.70476337,.00021156,56.7845,341.4029,270.3304,89.6420,0,U,40544,999,6932,0,-.98E-6,0
GSAT0204 (GALILEO 8),2015-017B,2026-06-23T22:06:17.261568,1.70475870,.00020932,56.7909,341.4306,241.0442,118.9316,0,U,40545,999,3236,0,-.99E-6,0
